STARLETTE               
1 07646U 75010A   23164.87087439 -.00000132  00000+0  10352-4 0  9999
2 07646  49.8225 123.7053 0205602  31.4696 329.8310 13.82319150442470
LAGEOS 1                
1 08820U 76039A   23164.41690564  .00000017  00000+0  00000+0 0  9990
2 08820 109.8067 162.6447 0044966 178.3814  10.0938  6.38664635843319
AJISAI (EGS)            
1 16908U 86061A   23165.54428919 -.00000090  00000+0  48312-4 0  9995
2 16908  50.0100 285.6543 0011200 263.2044 227.1435 12.44500628343938
COSMOS 1989 (ETALON 1)  
1 19751U 89001C   23164.79870705 -.00000008  00000+0  00000+0 0  9997
2 19751  64.4093 109.9503 0023996 214.7502 323.1120  2.13156182267936
COSMOS 2024 (ETALON 2)  
1 20026U 89039C   23165.30169748 -.00000063  00000+0  00000+0 0  9992
2 20026  65.4717 348.1101 0018776 218.0686 316.0971  2.13204352265068
LAGEOS 2                
1 22195U 92070B   23165.46335473 -.00000009  00000+0  00000+0 0  9997
2 22195  52.6453 241.0282 0138824  66.8848 272.7409  6.47293996724482
STELLA                  
1 22824U 93061B   23165.53121596 -.00000032  00000+0  58636-5 0  9994
2 22824  98.9280 199.9687 0006346 177.7567 291.7816 14.27405458548195
LARES                   
1 38077U 12006A   23165.03786469 -.00000029  00000+0  59900-4 0  9992
2 38077  69.4926   9.6874 0009342 343.6134  16.4589 12.54931183519262
